IRIDIUM 166             
1 43570U 18061B   25283.94234223  .00000283  00000+0  94162-4 0  9992
2 43570  86.4016 160.9329 0001967  79.1933 280.9484 14.34219794377670
IRIDIUM 158             
1 43571U 18061C   25283.91062954  .00000298  00000+0  99315-4 0  9991
2 43571  86.4016 160.9561 0002267  84.3758 275.7696 14.34218701377636
IRIDIUM 165             
1 43572U 18061D   25283.72669411  .00000311  00000+0  10386-3 0  9998
2 43572  86.4018 161.0742 0002033  82.8787 277.2640 14.34219282377639
IRIDIUM 155             
1 43573U 18061E   25283.89794450  .00000855  00000+0  29807-3 0  9990
2 43573  86.4014 160.8845 0002402  79.2218 280.9248 14.34218089377624
IRIDIUM 154             
1 43574U 18061F   25283.94870655  .00000311  00000+0  10384-3 0  9996
2 43574  86.4019 160.9843 0002087  83.0690 277.0743 14.34213311377681
IRIDIUM 163             
1 43575U 18061G   25283.37151015  .00000021  00000+0  35469-6 0  9998
2 43575  86.4017 161.1482 0002200  86.9942 273.1505 14.34218157377575
IRIDIUM 156             
1 43576U 18061H   25283.90428745  .00000257  00000+0  84621-4 0  9998
2 43576  86.4020 160.9332 0002195  75.5200 284.6239 14.34218210377644
IRIDIUM 164             
1 43577U 18061J   25283.95502709  .00000052  00000+0  11376-4 0  9997
2 43577  86.4016 160.9483 0001928  81.1316 279.0098 14.34217282377695
